#aV2010 11 25  0  0   .00000000      96 DD+AD WGS84 FIT  NGA
## 1611 345600.00000000   900.00000000 55525  .0000000000000
+   32     1  2  3  4  5  6  7  8  9 10 11 12 13 14 15 16 17
+         18 19 20 21 22 23 24 25 26 27 28 29 30 31 32  0  0
+          0  0  0  0  0  0  0  0  0  0  0  0  0  0  0  0  0
+          0  0  0  0  0  0  0  0  0  0  0  0  0  0  0  0  0
+          0  0  0  0  0  0  0  0  0  0  0  0  0  0  0  0  0
++         0  0  0  0  0  0  0  0  0  0  0  0  0  0  0  0  0
++         0  0  0  0  0  0  0  0  0  0  0  0  0  0  0  0  0
++         0  0  0  0  0  0  0  0  0  0  0  0  0  0  0  0  0
++         0  0  0  0  0  0  0  0  0  0  0  0  0  0  0  0  0
++         0  0  0  0  0  0  0  0  0  0  0  0  0  0  0  0  0
%c cc cc ccc ccc cccc cccc cccc cccc ccccc ccccc ccccc ccccc
%c cc cc ccc ccc cccc cccc cccc cccc ccccc ccccc ccccc ccccc
%f  0.0000000  0.000000000  0.00000000000  0.000000000000000
%f  0.0000000  0.000000000  0.00000000000  0.000000000000000
%i    0    0    0    0      0      0      0      0         0
%i    0    0    0    0      0      0      0      0         0
/*      NGA, ST. LOUIS,MO.                                  
/*   EPHEMERIS COMPUTED FROM  3 DAYS OF DATA                
/* CCCCCCCCCCCCCCCCCCCCCCCCCCCCCCCCCCCCCCCCCCCCCCCCCCCCCCCCC
/* CCCCCCCCCCCCCCCCCCCCCCCCCCCCCCCCCCCCCCCCCCCCCCCCCCCCCCCCC
*  2010 11 25  1  0   .00000000                                                 
P  1 -23951.490982  -6040.709614 -10039.230316   -185.341526                    
V  1  12443.002739  -2668.821687 -28281.308951      -.035299                    
P  2  17415.694982  -2257.424952 -19787.632108    304.541763                    
V  2 -10154.536214  23280.803819 -12060.174632       .024619                    
P  3 -19292.721680  -2575.249375  17808.543867    639.776146                    
V  3 -13226.055120 -19428.595202 -16437.156902       .051200                    
P  4  13130.215421   8860.286698 -21501.342381    228.174130                    
V  4 -13032.291382  23588.436228   2133.822225       .097296                    
P  5  26386.434909  -2595.555608   2285.936160    -72.686104                    
V  5   3017.152841   2746.292790 -31422.529606      -.059636                    
P  6 -19865.452597  -7501.674899  16225.843950    409.909262                    
V  6  -9820.124445 -17920.453961 -20327.136711      -.117777                    
P  7  -3596.785535  23451.808788  11732.311475      -.321117                    
V  7  -9036.215033  12105.411989 -27168.279895       .003976                    
P  8   4796.928535  16626.241613  19982.643390      6.961558                    
V  8 -14537.571144  20906.141241 -14443.182901       .000047                    
P  9  14931.679655 -20999.612541   5865.134655     44.614125                    
V  9  -1722.159732   8246.537476  31067.857625       .023838                    
P 10  22876.606927   7928.403621 -11525.053674    -58.733787                    
V 10 -14194.799329   2495.852687 -26559.347764      -.008974                    
P 11 -10157.275232  23747.301837   5023.479286   -106.431138                    
V 11  -3445.638846  -7974.767518  29348.440337      -.027997                    
P 12  17653.267462 -11364.284833 -16139.296855    -50.797776                    
V 12  20624.105311   1304.922315  21742.518553       .035173                    
P 13   3418.379258  23474.414939 -12029.828876    291.051283                    
V 13  -8357.955583 -12597.283061 -27302.063636      -.011409                    
P 14 -15405.190447 -21137.460491  -4862.670700    110.099007                    
V 14  -1387.355777  -6479.391098  31391.004600       .032643                    
P 15  11041.149531 -11084.449849  21472.165039   -179.382860                    
V 15  15224.484397  22620.592811   3994.235545       .044181                    
P 16 -26558.037370  -1537.240406  -2413.709281   -128.954099                    
V 16   3065.323657  -2151.521252 -31674.680342      -.032108                    
P 17  14944.674284  21949.990000  -2499.829008    178.148995                    
V 17   -606.953574   4172.396185  31387.336223       .010573                    
P 18  -4487.483793 -15651.293265  21321.439429    106.595173                    
V 18  26434.403141   -768.597265   4696.558037       .021678                    
P 19 -13107.375814   7891.147008  21705.189700    -86.172371                    
V 19 -12896.811901 -24373.381400   1393.960225      -.034016                    
P 20 -14643.672582  13866.566098 -17392.336048     49.384565                    
V 20 -22012.100622   -594.093032  18270.400667      -.001910                    
P 21   1094.920105 -22789.725111  13425.865144   -104.755334                    
V 21  10890.366466 -13166.240845 -24513.530509      -.027122                    
P 22 -16818.794513 -12225.946075  16747.842015    158.187541                    
V 22  20971.669136  -2424.034971  19395.209196      -.009467                    
P 23  -5013.354865  17399.489641 -19314.630728    341.731423                    
V 23 -14030.910599 -20277.713741 -14953.102845      -.020752                    
P 24 -17924.633303  17252.003316   9002.530814    341.861935                    
V 24   3245.110685 -11403.756678  28757.599211       .033856                    
P 25   4021.871945 -15168.274269 -21449.108629    -53.764570                    
V 25  27176.744690   -842.997159   5687.911296      -.023667                    
P 26  16467.574283   2690.923049  20205.659898    -57.978669                    
V 26  11946.998899  23955.943855 -12175.732496      -.082972                    
P 27  17252.891922 -15467.327211  13442.472506    210.889191                    
V 27  -5249.673399  15232.964087  25793.896994       .035814                    
P 28  13558.700048  13176.927207  19264.130237      6.280912                    
V 28 -23295.777035    861.338254  15951.226301       .017516                    
P 29  -2558.208017 -22883.607484 -13193.481754    165.965457                    
V 29  10375.155757  13485.527215 -25216.252995       .026505                    
P 30 -13454.333459 -12693.509206 -19513.262231    299.266789                    
V 30  23681.234790  -3067.253338 -14644.539505       .033025                    
P 31 -13733.096841  -5513.769868 -21847.529177     12.086538                    
V 31  13356.143552 -24835.703762  -1926.457191       .037716                    
P 32 -21846.055455   7599.012719 -12385.175750   -138.987186                    
V 32 -16219.989932  -3608.860316  26121.937011      -.083749                    
EOF
